{
  "type": "FeatureCollection",
  "features": [
    {
      "type": "Feature",
      "properties": {
        "norad_id": 34833,
        "name": "IRIDIUM 33 DEB",
        "group": "iridium-33-debris",
        "lat": -72.89094652631768,
        "lon": -123.49592895462736,
        "alt_km": 739.1078064675785,
        "timestamp": "2025-12-27T09:28:56.862659+00:00",
        "meta_object_name": "IRIDIUM 33 DEB",
        "meta_object_id": "1997-051MH",
        "meta_epoch": "2025-12-27T03:36:29.185056",
        "meta_mean_motion": 14.52459738,
        "meta_eccentricity": 0.0021088,
        "meta_inclination": 86.3923,
        "meta_ra_of_asc_node": 44.7821,
        "meta_arg_of_pericenter": 54.3467,
        "meta_mean_anomaly": 359.944,
        "meta_ephemeris_type": 0,
        "meta_classification_type": "U",
        "meta_norad_cat_id": 34833,
        "meta_element_set_no": 999,
        "meta_rev_at_epoch": 87924,
        "meta_bstar": 0.00081314,
        "meta_mean_motion_dot": 3.345e-05,
        "meta_mean_motion_ddot": 0,
        "tle_line1": "1 34833U 97051MH  25361.15033779  .00003345  00000+0  81314-3 0  9999",
        "tle_line2": "2 34833  86.3923  44.7821 0021088  54.3467 359.9440 14.52459738879240"
      },
      "geometry": {
        "type": "Point",
        "coordinates": [
          -123.49592895462736,
          -72.89094652631768
        ]
      }
    },
    {
      "type": "Feature",
      "properties": {
        "norad_id": 34870,
        "name": "IRIDIUM 33 DEB",
        "group": "iridium-33-debris",
        "lat": 57.171966066085986,
        "lon": -46.889133677629246,
        "alt_km": 630.8462097945148,
        "timestamp": "2025-12-27T09:28:56.862670+00:00",
        "meta_object_name": "IRIDIUM 33 DEB",
        "meta_object_id": "1997-051MQ",
        "meta_epoch": "2025-12-27T02:46:31.066176",
        "meta_mean_motion": 14.76712058,
        "meta_eccentricity": 0.0018424,
        "meta_inclination": 86.3107,
        "meta_ra_of_asc_node": 307.499,
        "meta_arg_of_pericenter": 132.9493,
        "meta_mean_anomaly": 239.9601,
        "meta_ephemeris_type": 0,
        "meta_classification_type": "U",
        "meta_norad_cat_id": 34870,
        "meta_element_set_no": 999,
        "meta_rev_at_epoch": 89123,
        "meta_bstar": 0.0017741,
        "meta_mean_motion_dot": 0.00012485,
        "meta_mean_motion_ddot": 0,
        "tle_line1": "1 34870U 97051MQ  25361.11563734  .00012485  00000+0  17741-2 0  9992",
        "tle_line2": "2 34870  86.3107 307.4990 0018424 132.9493 239.9601 14.76712058891235"
      },
      "geometry": {
        "type": "Point",
        "coordinates": [
          -46.889133677629246,
          57.171966066085986
        ]
      }
    },
    {
      "type": "Feature",
      "properties": {
        "norad_id": 34896,
        "name": "IRIDIUM 33 DEB",
        "group": "iridium-33-debris",
        "lat": 79.23533976454804,
        "lon": -20.1568731367562,
        "alt_km": 662.9139785819343,
        "timestamp": "2025-12-27T09:28:56.862681+00:00",
        "meta_object_name": "IRIDIUM 33 DEB",
        "meta_object_id": "1997-051MY",
        "meta_epoch": "2025-12-24T04:12:44.288640",
        "meta_mean_motion": 14.66381715,
        "meta_eccentricity": 0.00257287,
        "meta_inclination": 86.3299,
        "meta_ra_of_asc_node": 321.5555,
        "meta_arg_of_pericenter": 173.6101,
        "meta_mean_anomaly": 201.3064,
        "meta_ephemeris_type": 0,
        "meta_classification_type": "U",
        "meta_norad_cat_id": 34896,
        "meta_element_set_no": 999,
        "meta_rev_at_epoch": 87787,
        "meta_bstar": 0.00093038371,
        "meta_mean_motion_dot": 5.188e-05,
        "meta_mean_motion_ddot": 0,
        "tle_line1": "1 34896U 97051MY  25358.17551260  .00005188  00000+0  93038-3 0  9999",
        "tle_line2": "2 34896  86.3299 321.5555 0025728 173.6101 201.3064 14.66381715877873"
      },
      "geometry": {
        "type": "Point",
        "coordinates": [
          -20.1568731367562,
          79.23533976454804
        ]
      }
    },
    {
      "type": "Feature",
      "properties": {
        "norad_id": 34926,
        "name": "IRIDIUM 33 DEB",
        "group": "iridium-33-debris",
        "lat": -82.79451849909647,
        "lon": -30.89696876839405,
        "alt_km": 672.858132493554,
        "timestamp": "2025-12-27T09:28:56.862692+00:00",
        "meta_object_name": "IRIDIUM 33 DEB",
        "meta_object_id": "1997-051NF",
        "meta_epoch": "2025-12-27T00:05:49.475040",
        "meta_mean_motion": 14.55078165,
        "meta_eccentricity": 0.0074203,
        "meta_inclination": 86.1304,
        "meta_ra_of_asc_node": 1.6534,
        "meta_arg_of_pericenter": 243.2233,
        "meta_mean_anomaly": 145.2258,
        "meta_ephemeris_type": 0,
        "meta_classification_type": "U",
        "meta_norad_cat_id": 34926,
        "meta_element_set_no": 999,
        "meta_rev_at_epoch": 86664,
        "meta_bstar": 0.0066537,
        "meta_mean_motion_dot": 0.00029892,
        "meta_mean_motion_ddot": 0,
        "tle_line1": "1 34926U 97051NF  25361.00404485  .00029892  00000+0  66537-2 0  9996",
        "tle_line2": "2 34926  86.1304   1.6534 0074203 243.2233 145.2258 14.55078165866641"
      },
      "geometry": {
        "type": "Point",
        "coordinates": [
          -30.89696876839405,
          -82.79451849909647
        ]
      }
    },
    {
      "type": "Feature",
      "properties": {
        "norad_id": 34985,
        "name": "IRIDIUM 33 DEB",
        "group": "iridium-33-debris",
        "lat": 86.22430363838494,
        "lon": 156.39178455176113,
        "alt_km": 741.4633593752724,
        "timestamp": "2025-12-27T09:28:56.862702+00:00",
        "meta_object_name": "IRIDIUM 33 DEB",
        "meta_object_id": "1997-051NR",
        "meta_epoch": "2025-12-26T21:58:10.172064",
        "meta_mean_motion": 14.42068347,
        "meta_eccentricity": 0.0022221,
        "meta_inclination": 86.3683,
        "meta_ra_of_asc_node": 50.8313,
        "meta_arg_of_pericenter": 172.8188,
        "meta_mean_anomaly": 309.665,
        "meta_ephemeris_type": 0,
        "meta_classification_type": "U",
        "meta_norad_cat_id": 34985,
        "meta_element_set_no": 999,
        "meta_rev_at_epoch": 87379,
        "meta_bstar": 0.00068645,
        "meta_mean_motion_dot": 2.28e-05,
        "meta_mean_motion_ddot": 0,
        "tle_line1": "1 34985U 97051NR  25360.91539551  .00002280  00000+0  68645-3 0  9998",
        "tle_line2": "2 34985  86.3683  50.8313 0022221 172.8188 309.6650 14.42068347873791"
      },
      "geometry": {
        "type": "Point",
        "coordinates": [
          156.39178455176113,
          86.22430363838494
        ]
      }
    },
    {
      "type": "Feature",
      "properties": {
        "norad_id": 35051,
        "name": "IRIDIUM 33 DEB",
        "group": "iridium-33-debris",
        "lat": -41.61580421043204,
        "lon": -0.7991849038254486,
        "alt_km": 739.9017692895568,
        "timestamp": "2025-12-27T09:28:56.862712+00:00",
        "meta_object_name": "IRIDIUM 33 DEB",
        "meta_object_id": "1997-051NX",
        "meta_epoch": "2025-12-22T18:31:37.744896",
        "meta_mean_motion": 14.47639956,
        "meta_eccentricity": 0.0010302,
        "meta_inclination": 86.324,
        "meta_ra_of_asc_node": 4.4893,
        "meta_arg_of_pericenter": 63.2582,
        "meta_mean_anomaly": 296.9674,
        "meta_ephemeris_type": 0,
        "meta_classification_type": "U",
        "meta_norad_cat_id": 35051,
        "meta_element_set_no": 999,
        "meta_rev_at_epoch": 87141,
        "meta_bstar": 0.00060447572,
        "meta_mean_motion_dot": 2.248e-05,
        "meta_mean_motion_ddot": 0,
        "tle_line1": "1 35051U 97051NX  25356.77196464  .00002248  00000+0  60448-3 0  9991",
        "tle_line2": "2 35051  86.3240   4.4893 0010302  63.2582 296.9674 14.47639956871417"
      },
      "geometry": {
        "type": "Point",
        "coordinates": [
          -0.7991849038254486,
          -41.61580421043204
        ]
      }
    },
    {
      "type": "Feature",
      "properties": {
        "norad_id": 35052,
        "name": "IRIDIUM 33 DEB",
        "group": "iridium-33-debris",
        "lat": -13.481040891163866,
        "lon": 13.310574174103213,
        "alt_km": 762.9291347497401,
        "timestamp": "2025-12-27T09:28:56.862722+00:00",
        "meta_object_name": "IRIDIUM 33 DEB",
        "meta_object_id": "1997-051NY",
        "meta_epoch": "2025-12-26T00:09:21.492000",
        "meta_mean_motion": 14.38507246,
        "meta_eccentricity": 0.00130035,
        "meta_inclination": 86.3301,
        "meta_ra_of_asc_node": 14.7874,
        "meta_arg_of_pericenter": 47.6773,
        "meta_mean_anomaly": 312.5525,
        "meta_ephemeris_type": 0,
        "meta_classification_type": "U",
        "meta_norad_cat_id": 35052,
        "meta_element_set_no": 999,
        "meta_rev_at_epoch": 87466,
        "meta_bstar": 0.00018800221,
        "meta_mean_motion_dot": 5.94e-06,
        "meta_mean_motion_ddot": 0,
        "tle_line1": "1 35052U 97051NY  25360.00649875  .00000594  00000+0  18800-3 0  9999",
        "tle_line2": "2 35052  86.3301  14.7874 0013003  47.6773 312.5525 14.38507246874664"
      },
      "geometry": {
        "type": "Point",
        "coordinates": [
          13.310574174103213,
          -13.481040891163866
        ]
      }
    }
  ]
}